IRIDIUM 144             
1 43249U 18030A   24053.70591898  .00000267  00000+0  88105-4 0  9995
2 43249  86.3935 283.7572 0002066  88.7073 271.4360 14.34218087308955
IRIDIUM 149             
1 43250U 18030B   24054.13087217  .00000188  00000+0  59893-4 0  9994
2 43250  86.3935 283.5558 0002234  89.4138 270.7314 14.34216803309031
IRIDIUM 157             
1 43251U 18030C   24053.87082453  .00000169  00000+0  53351-4 0  9994
2 43251  86.3938 283.6991 0002014  78.5781 281.5641 14.34218574308978
IRIDIUM 140             
1 43252U 18030D   24053.68054765  .00000154  00000+0  47779-4 0  9990
2 43252  86.3938 283.7933 0002010  96.9873 263.1551 14.34218454309006
IRIDIUM 145             
1 43253U 18030E   24054.15624366  .00000137  00000+0  41720-4 0  9995
2 43253  86.3938 283.5684 0002302  93.3299 266.8160 14.34217517309000
IRIDIUM 146             
1 43254U 18030F   24054.34652406  .00000351  00000+0  11840-3 0  9990
2 43254  86.3936 283.5039 0002304  92.7106 267.4354 14.34215707309040
IRIDIUM 148             
1 43255U 18030G   24054.17526955  .00000244  00000+0  80162-4 0  9996
2 43255  86.3935 283.6058 0002368  83.5771 276.5694 14.34218269309064
IRIDIUM 142             
1 43256U 18030H   24054.35285878  .00000385  00000+0  13043-3 0  9992
2 43256  86.3935 283.4510 0002294  89.1366 271.0092 14.34215851309040
